[{"OBJECT_NAME":"COSMOS 2482 (RODNIK-S 4)","OBJECT_ID":"2013-001A","EPOCH":"2026-03-09T22:57:00.602208","MEAN_MOTION":12.42992225,"ECCENTRICITY":0.00268657,"INCLINATION":82.4946,"RA_OF_ASC_NODE":282.1079,"ARG_OF_PERICENTER":240.8337,"MEAN_ANOMALY":119.0054,"EPHEMERIS_TYPE":0,"CLASSIFICATION_TYPE":"U","NORAD_CAT_ID":39057,"ELEMENT_SET_NO":999,"REV_AT_EPOCH":59638,"BSTAR":-0.0013340309,"MEAN_MOTION_DOT":-1.75e-6,"MEAN_MOTION_DDOT":0},{"OBJECT_NAME":"DELTA 1 DEB","OBJECT_ID":"1973-086GL","EPOCH":"2026-03-09T11:36:33.989472","MEAN_MOTION":12.36404875,"ECCENTRICITY":0.00214703,"INCLINATION":102.3736,"RA_OF_ASC_NODE":64.7782,"ARG_OF_PERICENTER":170.5442,"MEAN_ANOMALY":341.8272,"EPHEMERIS_TYPE":0,"CLASSIFICATION_TYPE":"U","NORAD_CAT_ID":12000,"ELEMENT_SET_NO":999,"REV_AT_EPOCH":53563,"BSTAR":0.00034996003,"MEAN_MOTION_DOT":-2.0e-8,"MEAN_MOTION_DDOT":0}]
